GLOBALSTAR M075         
1 37192U 10054E   25191.54864309 -.00000103  00000+0  70417-5 0  9997
2 37192  51.9943 110.4065 0000539  47.1538 130.3839 12.62265962678792
GLOBALSTAR M073         
1 37193U 10054F   25191.84905017 -.00000096  00000+0  45392-4 0  9997
2 37193  52.0077  23.3284 0000940  74.5839  28.9777 12.62272455680827
GLOBALSTAR M083         
1 37739U 11033A   25191.79406405 -.00000088  00000+0  88920-4 0  9997
2 37739  51.9879 332.1973 0000608 106.8343  45.2284 12.62259891649837
GLOBALSTAR M088         
1 37740U 11033B   25191.42019147 -.00000072  00000+0  17614-3 0  9996
2 37740  52.0197 238.9343 0000370 160.3318 212.8838 12.62266611645337
GLOBALSTAR M091         
1 37741U 11033C   25191.37515322 -.00000097  00000+0  39056-4 0  9999
2 37741  51.9971 202.5392 0000223 255.6279 213.3988 12.62269308646113
GLOBALSTAR M085         
1 37742U 11033D   25191.61302481 -.00000121  00000+0 -94737-4 0  9993
2 37742  51.9849 152.8306 0000303 346.3053 184.7687 12.62269681646657
GLOBALSTAR M081         
1 37743U 11033E   25191.63983356 -.00000128  00000+0 -13770-3 0  9996
2 37743  51.9939 155.5529 0000444   5.4566 165.9396 12.62266996646804
GLOBALSTAR M089         
1 37744U 11033F   25191.19909650 -.00000107  00000+0 -20361-4 0  9995
2 37744  51.9927 111.1168 0000779  60.8418  88.0234 12.62265219647591
